1 41174U 15079A   20354.51023184  .00000060  00000-0  00000-0 0  9993
2 41174  55.0254 156.3871 0002560 341.2205  18.7477  1.70473486 30750
1 41174U 15079A   20355.68340741  .00000066  00000-0  00000+0 0  9998
2 41174  55.0257 156.3548 0002556 340.9888  18.9831  1.70473524 31189
1 41174U 15079A   20355.68340741  .00000066  00000-0  00000-0 0  9999
2 41174  55.0257 156.3548 0002556 340.9888  18.9831  1.70473524 30773
1 41174U 15079A   20356.26999578  .00000069  00000-0  00000-0 0  9995
2 41174  55.0259 156.3387 0002555 340.8812  19.0924  1.70473528 30781
1 41174U 15079A   20356.85658209  .00000071  00000-0  00000-0 0  9996
2 41174  55.0261 156.3226 0002546 340.4711  19.5040  1.70473574 30796
1 41174U 15079A   20356.85658251  .00000071  00000-0  00000+0 0  9992
2 41174  55.0260 156.3225 0002549 340.6778  19.2973  1.70473549 31203
1 41174U 15079A   20358.61633974  .00000075  00000-0  00000+0 0  9997
2 41174  55.0265 156.2741 0002545 339.5558  20.4208  1.70473554 31233
1 41174U 15079A   20358.61634116  .00000075  00000-0  00000-0 0  9997
2 41174  55.0265 156.2741 0002544 339.4965  20.4800  1.70473517 30824
1 41174U 15079A   20360.96266761  .00000075  00000-0  00000+0 0  9994
2 41174  55.0271 156.2097 0002558 338.4139  21.5564  1.70473571 31271
1 41174U 15079A   20360.96266761  .00000075  00000-0  00000-0 0  9995
2 41174  55.0271 156.2097 0002558 338.4139  21.5564  1.70473571 30865
1 41174U 15079A   20362.13582707  .00000073  00000-0  00000+0 0  9994
2 41174  55.0271 156.1774 0002561 338.1214  21.8430  1.70473561 31293
1 41174U 15079A   20362.13582707  .00000073  00000-0  00000-0 0  9995
2 41174  55.0271 156.1774 0002561 338.1214  21.8430  1.70473561 30887
1 41174U 15079A   20363.30898682  .00000071  00000-0  00000+0 0  9994
2 41174  55.0274 156.1452 0002564 337.7634  22.1942  1.70473500 31311
1 41174U 15079A   20363.89556719  .00000070  00000-0  00000-0 0  9990
2 41174  55.0274 156.1290 0002568 337.3804  22.5738  1.70473462 30919
1 41174U 15079A   20365.06872585  .00000067  00000-0  00000+0 0  9998
2 41174  55.0276 156.0968 0002572 336.7425  23.2059  1.70473480 31341
